[
  {
    "OBJECT_NAME": "STARLINK-32127",
    "OBJECT_ID": "24120M",
    "EPOCH": "2025-11-10T23:11:44.284992",
    "MEAN_MOTION": 15.30194916,
    "ECCENTRICITY": 0.0001247,
    "INCLINATION": 53.159,
    "RA_OF_ASC_NODE": 151.0596,
    "ARG_OF_PERICENTER": 67.581,
    "MEAN_ANOMALY": 292.5323,
    "EPHEMERIS_TYPE": 0,
    "CLASSIFICATION_TYPE": "U",
    "NORAD_CAT_ID": 60146,
    "ELEMENT_SET_NO": 999,
    "REV_AT_EPOCH": 7820,
    "BSTAR": 0.0,
    "MEAN_MOTION_DOT": -8.259e-05,
    "MEAN_MOTION_DDOT": 0.0,
    "TLE_LINE1": "1 60146U 24120M   25314.96648478 -.00008259  00000+0 -26707-3 0  9993",
    "TLE_LINE2": "2 60146  53.1590 151.0596 0001247  67.5810 292.5323 15.30194916 78202",
    "COMMENT": "Grouped by shell and plane from TLE"
  },
  {
    "OBJECT_NAME": "STARLINK-32022",
    "OBJECT_ID": "24120Q",
    "EPOCH": "2025-11-10T22:15:41.686848",
    "MEAN_MOTION": 15.30196143,
    "ECCENTRICITY": 0.0001192,
    "INCLINATION": 53.1594,
    "RA_OF_ASC_NODE": 151.5269,
    "ARG_OF_PERICENTER": 93.036,
    "MEAN_ANOMALY": 267.0778,
    "EPHEMERIS_TYPE": 0,
    "CLASSIFICATION_TYPE": "U",
    "NORAD_CAT_ID": 60149,
    "ELEMENT_SET_NO": 999,
    "REV_AT_EPOCH": 7827,
    "BSTAR": 2.3702e-05,
    "MEAN_MOTION_DOT": 3.43e-06,
    "MEAN_MOTION_DDOT": 0.0,
    "TLE_LINE1": "1 60149U 24120Q   25314.92756582  .00000343  00000+0  23702-4 0  9995",
    "TLE_LINE2": "2 60149  53.1594 151.5269 0001192  93.0360 267.0778 15.30196143 78276",
    "COMMENT": "Grouped by shell and plane from TLE"
  },
  {
    "OBJECT_NAME": "STARLINK-32004",
    "OBJECT_ID": "24120S",
    "EPOCH": "2025-11-10T23:40:37.902720",
    "MEAN_MOTION": 15.30193426,
    "ECCENTRICITY": 0.0001419,
    "INCLINATION": 53.1588,
    "RA_OF_ASC_NODE": 151.1825,
    "ARG_OF_PERICENTER": 100.6531,
    "MEAN_ANOMALY": 259.463,
    "EPHEMERIS_TYPE": 0,
    "CLASSIFICATION_TYPE": "U",
    "NORAD_CAT_ID": 60151,
    "ELEMENT_SET_NO": 999,
    "REV_AT_EPOCH": 7828,
    "BSTAR": 2.1243000000000003e-05,
    "MEAN_MOTION_DOT": 2.7e-06,
    "MEAN_MOTION_DDOT": 0.0,
    "TLE_LINE1": "1 60151U 24120S   25314.98654980  .00000270  00000+0  21243-4 0  9990",
    "TLE_LINE2": "2 60151  53.1588 151.1825 0001419 100.6531 259.4630 15.30193426 78287",
    "COMMENT": "Grouped by shell and plane from TLE"
  },
  {
    "OBJECT_NAME": "STARLINK-32147",
    "OBJECT_ID": "24120T",
    "EPOCH": "2025-11-11T06:48:30.037536",
    "MEAN_MOTION": 15.3020521,
    "ECCENTRICITY": 6.98e-05,
    "INCLINATION": 53.1623,
    "RA_OF_ASC_NODE": 150.1959,
    "ARG_OF_PERICENTER": 63.6445,
    "MEAN_ANOMALY": 296.4627,
    "EPHEMERIS_TYPE": 0,
    "CLASSIFICATION_TYPE": "U",
    "NORAD_CAT_ID": 60152,
    "ELEMENT_SET_NO": 999,
    "REV_AT_EPOCH": 7824,
    "BSTAR": 0.00028792,
    "MEAN_MOTION_DOT": 8.179e-05,
    "MEAN_MOTION_DDOT": 0.0,
    "TLE_LINE1": "1 60152U 24120T   25315.28368099  .00008179  00000+0  28792-3 0  9999",
    "TLE_LINE2": "2 60152  53.1623 150.1959 0000698  63.6445 296.4627 15.30205210 78243",
    "COMMENT": "Grouped by shell and plane from TLE"
  },
  {
    "OBJECT_NAME": "STARLINK-32131",
    "OBJECT_ID": "24120U",
    "EPOCH": "2025-11-11T06:24:11.853504",
    "MEAN_MOTION": 15.30191266,
    "ECCENTRICITY": 0.0001314,
    "INCLINATION": 53.1585,
    "RA_OF_ASC_NODE": 150.0877,
    "ARG_OF_PERICENTER": 89.4181,
    "MEAN_ANOMALY": 270.697,
    "EPHEMERIS_TYPE": 0,
    "CLASSIFICATION_TYPE": "U",
    "NORAD_CAT_ID": 60153,
    "ELEMENT_SET_NO": 999,
    "REV_AT_EPOCH": 7832,
    "BSTAR": 1.954e-05,
    "MEAN_MOTION_DOT": 2.19e-06,
    "MEAN_MOTION_DDOT": 0.0,
    "TLE_LINE1": "1 60153U 24120U   25315.26680386  .00000219  00000+0  19540-4 0  9993",
    "TLE_LINE2": "2 60153  53.1585 150.0877 0001314  89.4181 270.6970 15.30191266 78327",
    "COMMENT": "Grouped by shell and plane from TLE"
  },
  {
    "OBJECT_NAME": "STARLINK-32137",
    "OBJECT_ID": "24120W",
    "EPOCH": "2025-11-11T06:10:31.342080",
    "MEAN_MOTION": 15.30202035,
    "ECCENTRICITY": 0.0001446,
    "INCLINATION": 53.1579,
    "RA_OF_ASC_NODE": 150.0293,
    "ARG_OF_PERICENTER": 86.9536,
    "MEAN_ANOMALY": 273.1631,
    "EPHEMERIS_TYPE": 0,
    "CLASSIFICATION_TYPE": "U",
    "NORAD_CAT_ID": 60155,
    "ELEMENT_SET_NO": 999,
    "REV_AT_EPOCH": 7824,
    "BSTAR": 0.00017907,
    "MEAN_MOTION_DOT": 4.948e-05,
    "MEAN_MOTION_DDOT": 0.0,
    "TLE_LINE1": "1 60155U 24120W   25315.25730720  .00004948  00000+0  17907-3 0  9999",
    "TLE_LINE2": "2 60155  53.1579 150.0293 0001446  86.9536 273.1631 15.30202035 78246",
    "COMMENT": "Grouped by shell and plane from TLE"
  },
  {
    "OBJECT_NAME": "STARLINK-32048",
    "OBJECT_ID": "24120X",
    "EPOCH": "2025-11-11T06:15:04.566528",
    "MEAN_MOTION": 15.30195463,
    "ECCENTRICITY": 0.0001611,
    "INCLINATION": 53.1572,
    "RA_OF_ASC_NODE": 150.0481,
    "ARG_OF_PERICENTER": 90.5198,
    "MEAN_ANOMALY": 269.5987,
    "EPHEMERIS_TYPE": 0,
    "CLASSIFICATION_TYPE": "U",
    "NORAD_CAT_ID": 60156,
    "ELEMENT_SET_NO": 999,
    "REV_AT_EPOCH": 7824,
    "BSTAR": 2.549e-05,
    "MEAN_MOTION_DOT": 3.96e-06,
    "MEAN_MOTION_DDOT": 0.0,
    "TLE_LINE1": "1 60156U 24120X   25315.26046952  .00000396  00000+0  25490-4 0  9998",
    "TLE_LINE2": "2 60156  53.1572 150.0481 0001611  90.5198 269.5987 15.30195463 78247",
    "COMMENT": "Grouped by shell and plane from TLE"
  },
  {
    "OBJECT_NAME": "STARLINK-32129",
    "OBJECT_ID": "24120Y",
    "EPOCH": "2025-11-10T19:59:14.768448",
    "MEAN_MOTION": 15.30208441,
    "ECCENTRICITY": 0.0002193,
    "INCLINATION": 53.1624,
    "RA_OF_ASC_NODE": 152.3561,
    "ARG_OF_PERICENTER": 94.7474,
    "MEAN_ANOMALY": 265.3777,
    "EPHEMERIS_TYPE": 0,
    "CLASSIFICATION_TYPE": "U",
    "NORAD_CAT_ID": 60157,
    "ELEMENT_SET_NO": 999,
    "REV_AT_EPOCH": 7825,
    "BSTAR": 1.9799e-05,
    "MEAN_MOTION_DOT": 2.27e-06,
    "MEAN_MOTION_DDOT": 0.0,
    "TLE_LINE1": "1 60157U 24120Y   25314.83280982  .00000227  00000+0  19799-4 0  9992",
    "TLE_LINE2": "2 60157  53.1624 152.3561 0002193  94.7474 265.3777 15.30208441 78252",
    "COMMENT": "Grouped by shell and plane from TLE"
  },
  {
    "OBJECT_NAME": "STARLINK-31869",
    "OBJECT_ID": "24124P",
    "EPOCH": "2025-11-10T23:47:33.932544",
    "MEAN_MOTION": 15.30197353,
    "ECCENTRICITY": 0.0001279,
    "INCLINATION": 53.1588,
    "RA_OF_ASC_NODE": 153.7539,
    "ARG_OF_PERICENTER": 93.5892,
    "MEAN_ANOMALY": 266.5255,
    "EPHEMERIS_TYPE": 0,
    "CLASSIFICATION_TYPE": "U",
    "NORAD_CAT_ID": 60196,
    "ELEMENT_SET_NO": 999,
    "REV_AT_EPOCH": 7612,
    "BSTAR": 2.7600000000000003e-05,
    "MEAN_MOTION_DOT": 4.58e-06,
    "MEAN_MOTION_DDOT": 0.0,
    "TLE_LINE1": "1 60196U 24124P   25314.99136496  .00000458  00000+0  27600-4 0  9992",
    "TLE_LINE2": "2 60196  53.1588 153.7539 0001279  93.5892 266.5255 15.30197353 76126",
    "COMMENT": "Grouped by shell and plane from TLE"
  },
  {
    "OBJECT_NAME": "STARLINK-32023",
    "OBJECT_ID": "24124Q",
    "EPOCH": "2025-11-11T06:53:53.782656",
    "MEAN_MOTION": 15.30361451,
    "ECCENTRICITY": 0.0004587,
    "INCLINATION": 53.1562,
    "RA_OF_ASC_NODE": 152.7571,
    "ARG_OF_PERICENTER": 63.6997,
    "MEAN_ANOMALY": 296.4474,
    "EPHEMERIS_TYPE": 0,
    "CLASSIFICATION_TYPE": "U",
    "NORAD_CAT_ID": 60197,
    "ELEMENT_SET_NO": 999,
    "REV_AT_EPOCH": 7616,
    "BSTAR": 0.0,
    "MEAN_MOTION_DOT": -0.00035247,
    "MEAN_MOTION_DDOT": 0.0,
    "TLE_LINE1": "1 60197U 24124Q   25315.28742804 -.00035247  00000+0 -11771-2 0  9998",
    "TLE_LINE2": "2 60197  53.1562 152.7571 0004587  63.6997 296.4474 15.30361451 76164",
    "COMMENT": "Grouped by shell and plane from TLE"
  },
  {
    "OBJECT_NAME": "STARLINK-32046",
    "OBJECT_ID": "24124R",
    "EPOCH": "2025-11-11T00:04:16.898304",
    "MEAN_MOTION": 15.30192696,
    "ECCENTRICITY": 0.0001466,
    "INCLINATION": 53.1591,
    "RA_OF_ASC_NODE": 153.8238,
    "ARG_OF_PERICENTER": 91.6161,
    "MEAN_ANOMALY": 268.5008,
    "EPHEMERIS_TYPE": 0,
    "CLASSIFICATION_TYPE": "U",
    "NORAD_CAT_ID": 60198,
    "ELEMENT_SET_NO": 999,
    "REV_AT_EPOCH": 7735,
    "BSTAR": 1.1159e-05,
    "MEAN_MOTION_DOT": -2.9e-07,
    "MEAN_MOTION_DDOT": 0.0,
    "TLE_LINE1": "1 60198U 24124R   25315.00297336 -.00000029  00000+0  11159-4 0  9995",
    "TLE_LINE2": "2 60198  53.1591 153.8238 0001466  91.6161 268.5008 15.30192696 77354",
    "COMMENT": "Grouped by shell and plane from TLE"
  },
  {
    "OBJECT_NAME": "STARLINK-32049",
    "OBJECT_ID": "24124S",
    "EPOCH": "2025-11-11T06:40:15.180672",
    "MEAN_MOTION": 15.30190831,
    "ECCENTRICITY": 0.000189,
    "INCLINATION": 53.1571,
    "RA_OF_ASC_NODE": 152.6964,
    "ARG_OF_PERICENTER": 91.0993,
    "MEAN_ANOMALY": 269.0224,
    "EPHEMERIS_TYPE": 0,
    "CLASSIFICATION_TYPE": "U",
    "NORAD_CAT_ID": 60199,
    "ELEMENT_SET_NO": 999,
    "REV_AT_EPOCH": 7739,
    "BSTAR": 1.7373e-06,
    "MEAN_MOTION_DOT": -3.08e-06,
    "MEAN_MOTION_DDOT": 0.0,
    "TLE_LINE1": "1 60199U 24124S   25315.27795348 -.00000308  00000+0  17373-5 0  9996",
    "TLE_LINE2": "2 60199  53.1571 152.6964 0001890  91.0993 269.0224 15.30190831 77393",
    "COMMENT": "Grouped by shell and plane from TLE"
  },
  {
    "OBJECT_NAME": "STARLINK-32002",
    "OBJECT_ID": "24124T",
    "EPOCH": "2025-11-11T06:22:00.868512",
    "MEAN_MOTION": 15.30192315,
    "ECCENTRICITY": 9.48e-05,
    "INCLINATION": 53.1607,
    "RA_OF_ASC_NODE": 152.6187,
    "ARG_OF_PERICENTER": 95.7367,
    "MEAN_ANOMALY": 264.3742,
    "EPHEMERIS_TYPE": 0,
    "CLASSIFICATION_TYPE": "U",
    "NORAD_CAT_ID": 60200,
    "ELEMENT_SET_NO": 999,
    "REV_AT_EPOCH": 7616,
    "BSTAR": 1.6186e-05,
    "MEAN_MOTION_DOT": 1.2e-06,
    "MEAN_MOTION_DDOT": 0.0,
    "TLE_LINE1": "1 60200U 24124T   25315.26528783  .00000120  00000+0  16186-4 0  9996",
    "TLE_LINE2": "2 60200  53.1607 152.6187 0000948  95.7367 264.3742 15.30192315 76168",
    "COMMENT": "Grouped by shell and plane from TLE"
  }
]